TEVEL2-7                
1 63238U 25052AE  26155.65193812  .00017921  00000+0  59588-3 0  9997
2 63238  97.3951  50.9267 0006581 168.2020 191.9377 15.31212802 68103
TEVEL2-8                
1 63239U 25052AF  26155.66005754  .00017961  00000+0  59749-3 0  9999
2 63239  97.3951  50.9120 0006563 168.5625 191.5767 15.31195553 68108
FORESAIL-1 PRIME        
1 66778U 25276DS  26156.00455479  .00006190  00000+0  30253-3 0  9991
2 66778  97.4202 229.4991 0003563 129.0934 231.0618 15.18588249 28553
